GPS BIIF-6  (PRN 06)    
1 39741U 14026A   26087.19137739 -.00000084  00000+0  00000+0 0  9991
2 39741  56.5350 334.6726 0039518 325.7427  34.0463  2.00566865 86919
